*******************************************************************************
JPL/HORIZONS                490 Veritas (A902 RE)          2020-Jun-22 09:10:30
Rec #:     490 (+COV) Soln.date: 2020-May-20_01:06:36   # obs: 2852 (1902-2020)
 
IAU76/J2000 helio. ecliptic osc. elements (au, days, deg., period=Julian yrs):
 
  EPOCH=  2455922.5 ! 2011-Dec-27.00 (TDB)         Residual RMS= .35434
   EC= .09596080503070094  QR= 2.864812596029905   TP= 2455361.3590906225
   OM= 178.3586417748808   W=  194.6011049901973   IN= 9.283887720229338
   A= 3.168903087356952    MA= 98.04209189400403   ADIST= 3.472993578683998
   PER= 5.6412             N= .174719197           ANGMOM= .030480849
   DAN= 3.46113            DDN= 2.87294            L= 12.7765203
   B= -2.3307729           MOID= 1.86407006        TP= 2010-Jun-13.8590906225
 
Asteroid physical parameters (km, seconds, rotational period in hours):
   GM= n.a.                RAD= 59.4015            ROTPER= 7.93
   H= 8.6                  G= .150                 B-V= .750
                           ALBEDO= .059            STYP= Ch
 
ASTEROID comments: 
1: soln ref.= JPL#36, OCC=0
2: source=ORB
*******************************************************************************
 
 
*******************************************************************************
Ephemeris / WWW_USER Mon Jun 22 09:10:30 2020 Pasadena, USA      / Horizons
*******************************************************************************
Target body name: 490 Veritas (A902 RE)           {source: JPL#36}
Center body name: Solar System Barycenter (0)     {source: DE431}
Center-site name: BODY CENTER
*******************************************************************************
Start time      : A.D. 1969-Jun-28 00:00:00.0000 TDB
Stop  time      : A.D. 2071-May-04 00:00:00.0000 TDB
Step-size       : 7200 minutes
*******************************************************************************
Center geodetic : 0.00000000,0.00000000,0.0000000 {E-lon(deg),Lat(deg),Alt(km)}
Center cylindric: 0.00000000,0.00000000,0.0000000 {E-lon(deg),Dxy(km),Dz(km)}
Center radii    : (undefined)                                                  
Small perturbers: Yes                             {source: SB431-N16}
Output units    : AU-D
Output type     : GEOMETRIC cartesian states
Output format   : 2 (position and velocity)
Reference frame : Ecliptic of J2000.0
*******************************************************************************
Initial IAU76/J2000 heliocentric ecliptic osculating elements (au, days, deg.):
  EPOCH=  2455922.5 ! 2011-Dec-27.00 (TDB)         Residual RMS= .35434        
   EC= .09596080503070094  QR= 2.864812596029905   TP= 2455361.3590906225      
   OM= 178.3586417748808   W=  194.6011049901973   IN= 9.283887720229338       
  Equivalent ICRF heliocentric equatorial cartesian coordinates (au, au/d):
   X=-1.700723636159041E+00  Y= 2.671262370513167E+00  Z= 6.820122018552064E-01
  VX=-8.471617218223895E-03 VY=-4.071568973166614E-03 VZ=-9.868033978809754E-04
Asteroid physical parameters (km, seconds, rotational period in hours):        
   GM= n.a.                RAD= 59.4015            ROTPER= 7.93                
   H= 8.6                  G= .150                 B-V= .750                   
                           ALBEDO= .059            STYP= Ch                    
*******************************************************************************
            JDTDB,            Calendar Date (TDB),        delta-T,                      X,                      Y,                      Z,                     VX,                     VY,                     VZ,
******************************************************************************************************************************************************************************************************************
$$SOE
2462100.500000000, A.D. 2028-Nov-25 00:00:00.0000,      69.182963, -1.515373526663663E+00,  2.814161243407386E+00, -4.517946960439165E-01, -8.726795259920308E-03, -3.655981880571741E-03,  6.481604315960847E-04,
2462105.500000000, A.D. 2028-Nov-30 00:00:00.0000,      69.183078, -1.558839711383135E+00,  2.795573234314443E+00, -4.485044660674780E-01, -8.659403565286061E-03, -3.779008504157380E-03,  6.678951179907156E-04,
2462110.500000000, A.D. 2028-Dec-05 00:00:00.0000,      69.183199, -1.601964833949485E+00,  2.776373304384181E+00, -4.451161113548430E-01, -8.590374849028436E-03, -3.900747534735978E-03,  6.874099128193586E-04,
2462115.500000000, A.D. 2028-Dec-10 00:00:00.0000,      69.183327, -1.644740775972622E+00,  2.756567931345337E+00, -4.416307374897681E-01, -8.519735790584536E-03, -4.021183156030072E-03,  7.067023802320596E-04,
2462120.500000000, A.D. 2028-Dec-15 00:00:00.0000,      69.183463, -1.687159552335430E+00,  2.736163670678671E+00, -4.380494620189467E-01, -8.447513018198261E-03, -4.140300081769022E-03,  7.257701706045573E-04,
2462125.500000000, A.D. 2028-Dec-20 00:00:00.0000,      69.183602, -1.729213310915536E+00,  2.715167152993007E+00, -4.343734140253591E-01, -8.373733100086855E-03, -4.258083545264103E-03,  7.446110187503776E-04,
2462130.500000000, A.D. 2028-Dec-25 00:00:00.0000,      69.183744, -1.770894332263936E+00,  2.693585081453334E+00, -4.306037337105111E-01, -8.298422536006529E-03, -4.374519289004514E-03,  7.632227421527038E-04,
2462135.500000000, A.D. 2028-Dec-30 00:00:00.0000,      69.183887, -1.812195029242415E+00,  2.671424229260847E+00, -4.267415719854555E-01, -8.221607749207674E-03, -4.489593554297467E-03,  7.816032392212263E-04,
2462140.500000000, A.D. 2029-Jan-04 00:00:00.0000,      69.184029, -1.853107946621729E+00,  2.648691437184623E+00, -4.227880900704625E-01, -8.143315078790965E-03, -4.603293070974158E-03,  7.997504875752336E-04,
2462145.500000000, A.D. 2029-Jan-09 00:00:00.0000,      69.184173, -1.893625760642678E+00,  2.625393611144622E+00, -4.187444591032360E-01, -8.063570772517554E-03, -4.715605047139733E-03,  8.176625423348720E-04,
2462150.500000000, A.D. 2029-Jan-14 00:00:00.0000,      69.184317, -1.933741278542483E+00,  2.601537719846100E+00, -4.146118597557625E-01, -7.982400980111782E-03, -4.826517158828819E-03,  8.353375343701797E-04,
2462155.500000000, A.D. 2029-Jan-19 00:00:00.0000,      69.184458, -1.973447438048509E+00,  2.577130792466183E+00, -4.103914818600214E-01, -7.899831746835277E-03, -4.936017539511305E-03,  8.527736685229672E-04,
2462160.500000000, A.D. 2029-Jan-24 00:00:00.0000,      69.184595, -2.012737306839771E+00,  2.552179916392570E+00, -4.060845240423309E-01, -7.815889007010645E-03, -5.044094769825788E-03,  8.699692219588909E-04,
2462165.500000000, A.D. 2029-Jan-29 00:00:00.0000,      69.184726, -2.051604081976436E+00,  2.526692235012131E+00, -4.016921933654551E-01, -7.730598577785157E-03, -5.150737867884331E-03,  8.869225426940932E-04,
2462170.500000000, A.D. 2029-Feb-03 00:00:00.0000,      69.184851, -2.090041089299723E+00,  2.500674945547190E+00, -3.972157049780057E-01, -7.643986153562432E-03, -5.255936279813049E-03,  9.036320481199704E-04,
2462175.500000000, A.D. 2029-Feb-08 00:00:00.0000,      69.184971, -2.128041782805542E+00,  2.474135296939294E+00, -3.926562817714391E-01, -7.556077301017069E-03, -5.359679870192782E-03,  9.200962234426021E-04,
2462180.500000000, A.D. 2029-Feb-13 00:00:00.0000,      69.185084, -2.165599743994143E+00,  2.447080587780967E+00, -3.880151540449563E-01, -7.466897454464170E-03, -5.461958912459213E-03,  9.363136200939990E-04,
2462185.500000000, A.D. 2029-Feb-18 00:00:00.0000,      69.185190, -2.202708681197378E+00,  2.419518164295255E+00, -3.832935591783146E-01, -7.376471911536642E-03, -5.562764079391199E-03,  9.522828541590650E-04,
2462190.500000000, A.D. 2029-Feb-23 00:00:00.0000,      69.185285, -2.239362428885183E+00,  2.391455418362557E+00, -3.784927413124621E-01, -7.284825829201167E-03, -5.662086433710235E-03,  9.680026048178977E-04,
2462195.500000000, A.D. 2029-Feb-28 00:00:00.0000,      69.185369, -2.275554946953028E+00,  2.362899785594212E+00, -3.736139510379379E-01, -7.191984220127828E-03, -5.759917418773693E-03,  9.834716127954232E-04,
2462200.500000000, A.D. 2029-Mar-05 00:00:00.0000,      69.185443, -2.311280319992069E+00,  2.333858743452444E+00, -3.686584450910202E-01, -7.097971949399763E-03, -5.856248849336635E-03,  9.986886788138827E-04,
2462205.500000000, A.D. 2029-Mar-10 00:00:00.0000,      69.185507, -2.346532756543652E+00,  2.304339809416335E+00, -3.636274860575981E-01, -7.002813731538504E-03, -5.951072902376585E-03,  1.013652662050538E-03,
2462210.500000000, A.D. 2029-Mar-15 00:00:00.0000,      69.185561, -2.381306588339666E+00,  2.274350539193510E+00, -3.585223420847281E-01, -6.906534127814546E-03, -6.044382107986235E-03,  1.028362478606296E-03,
2462215.500000000, A.D. 2029-Mar-20 00:00:00.0000,      69.185603, -2.415596269530114E+00,  2.243898524977169E+00, -3.533442865998133E-01, -6.809157543816276E-03, -6.136169340349782E-03,  1.042817099992399E-03,
2462220.500000000, A.D. 2029-Mar-25 00:00:00.0000,      69.185632, -2.449396375899105E+00,  2.212991393747950E+00, -3.480945980372777E-01, -6.710708227253441E-03, -6.226427808829654E-03,  1.057015551643174E-03,
2462225.500000000, A.D. 2029-Mar-30 00:00:00.0000,      69.185647, -2.482701604070438E+00,  2.181636805620058E+00, -3.427745595726041E-01, -6.611210265976355E-03, -6.315151049190750E-03,  1.070956911461875E-03,
2462230.500000000, A.D. 2029-Apr-04 00:00:00.0000,      69.185650, -2.515506770703808E+00,  2.149842452230811E+00, -3.373854588635493E-01, -6.510687586225534E-03, -6.402332915003806E-03,  1.084640308401547E-03,
2462235.500000000, A.D. 2029-Apr-09 00:00:00.0000,      69.185643, -2.547806811683029E+00,  2.117616055172746E+00, -3.319285877984074E-01, -6.409163951203000E-03, -6.487967569214713E-03,  1.098064921057888E-03,
